{"type": "FeatureCollection", "features": [ {"type": "Feature", "properties": {"norad_id": 34823, "name": "COSMOS 2251 DEB", "group": "cosmos-2251-debris", "lat": 24.4582120900467, "lon": 96.74037496794061, "alt_km": 799.4162217789353, "timestamp": "2025-12-19T14:48:36.643389+00:00", "meta": {"OBJECT_NAME": "COSMOS 2251 DEB", "OBJECT_ID": "1993-036ABN", "EPOCH": "2025-12-17T16:29:01.822560", "MEAN_MOTION": 14.54962902, "ECCENTRICITY": 0.01543529, "INCLINATION": 74.0424, "RA_OF_ASC_NODE": 92.9148, "ARG_OF_PERICENTER": 176.4751, "MEAN_ANOMALY": 183.7542, "EPHEMERIS_TYPE": 0, "CLASSIFICATION_TYPE": "U", "NORAD_CAT_ID": 34823, "ELEMENT_SET_NO": 999, "REV_AT_EPOCH": 88453, "BSTAR": 0.00051395054, "MEAN_MOTION_DOT": 2.564e-05, "MEAN_MOTION_DDOT": 0}, "tle": {"line1": "1 34823U 93036ABN 25351.68682665  .00002564  00000+0  51395-3 0  9996", "line2": "2 34823  74.0424  92.9148 0154352 176.4751 183.7542 14.54962902884537"}}, "geometry": {"type": "Point", "coordinates": [96.74037496794061, 24.4582120900467]}}, {"type": "Feature", "properties": {"norad_id": 34845, "name": "COSMOS 2251 DEB", "group": "cosmos-2251-debris", "lat": 47.41685265609847, "lon": -62.647903097960196, "alt_km": 750.1767795276983, "timestamp": "2025-12-19T14:48:36.643400+00:00", "meta": {"OBJECT_NAME": "COSMOS 2251 DEB", "OBJECT_ID": "1993-036ABP", "EPOCH": "2025-12-18T03:20:16.618272", "MEAN_MOTION": 14.45869846, "ECCENTRICITY": 0.00226187, "INCLINATION": 74.0247, "RA_OF_ASC_NODE": 138.2724, "ARG_OF_PERICENTER": 298.416, "MEAN_ANOMALY": 61.4719, "EPHEMERIS_TYPE": 0, "CLASSIFICATION_TYPE": "U", "NORAD_CAT_ID": 34845, "ELEMENT_SET_NO": 999, "REV_AT_EPOCH": 87544, "BSTAR": 0.00023548418, "MEAN_MOTION_DOT": 8.12e-06, "MEAN_MOTION_DDOT": 0}, "tle": {"line1": "1 34845U 93036ABP 25352.13908123  .00000812  00000+0  23548-3 0  9994", "line2": "2 34845  74.0247 138.2724 0022618 298.4160  61.4719 14.45869846875447"}}, "geometry": {"type": "Point", "coordinates": [-62.647903097960196, 47.41685265609847]}}, {"type": "Feature", "properties": {"norad_id": 34846, "name": "COSMOS 2251 DEB", "group": "cosmos-2251-debris", "lat": 69.3354915733779, "lon": 19.51867067713119, "alt_km": 743.493798771633, "timestamp": "2025-12-19T14:48:36.643410+00:00", "meta": {"OBJECT_NAME": "COSMOS 2251 DEB", "OBJECT_ID": "1993-036ABQ", "EPOCH": "2025-12-19T02:43:18.117696", "MEAN_MOTION": 14.47249757, "ECCENTRICITY": 0.00261944, "INCLINATION": 74.0309, "RA_OF_ASC_NODE": 249.8559, "ARG_OF_PERICENTER": 315.4558, "MEAN_ANOMALY": 44.4495, "EPHEMERIS_TYPE": 0, "CLASSIFICATION_TYPE": "U", "NORAD_CAT_ID": 34846, "ELEMENT_SET_NO": 999, "REV_AT_EPOCH": 87496, "BSTAR": 0.00056112106, "MEAN_MOTION_DOT": 2.033e-05, "MEAN_MOTION_DDOT": 0}, "tle": {"line1": "1 34846U 93036ABQ 25353.11340414  .00002033  00000+0  56112-3 0  9997", "line2": "2 34846  74.0309 249.8559 0026194 315.4558  44.4495 14.47249757874969"}}, "geometry": {"type": "Point", "coordinates": [19.51867067713119, 69.3354915733779]}}, {"type": "Feature", "properties": {"norad_id": 34852, "name": "COSMOS 2251 DEB", "group": "cosmos-2251-debris", "lat": -72.97187804890346, "lon": -178.87875988134164, "alt_km": 772.4896496179563, "timestamp": "2025-12-19T14:48:36.643420+00:00", "meta": {"OBJECT_NAME": "COSMOS 2251 DEB", "OBJECT_ID": "1993-036ABW", "EPOCH": "2025-12-18T10:47:45.598848", "MEAN_MOTION": 14.37009451, "ECCENTRICITY": 0.00164441, "INCLINATION": 74.0327, "RA_OF_ASC_NODE": 252.4705, "ARG_OF_PERICENTER": 354.4179, "MEAN_ANOMALY": 5.6788, "EPHEMERIS_TYPE": 0, "CLASSIFICATION_TYPE": "U", "NORAD_CAT_ID": 34852, "ELEMENT_SET_NO": 999, "REV_AT_EPOCH": 87616, "BSTAR": 9.6329972e-05, "MEAN_MOTION_DOT": 2.6e-06, "MEAN_MOTION_DDOT": 0}, "tle": {"line1": "1 34852U 93036ABW 25352.44983332  .00000260  00000+0  96330-4 0  9998", "line2": "2 34852  74.0327 252.4705 0016444 354.4179   5.6788 14.37009451876160"}}, "geometry": {"type": "Point", "coordinates": [-178.87875988134164, -72.97187804890346]}}, {"type": "Feature", "properties": {"norad_id": 34854, "name": "COSMOS 2251 DEB", "group": "cosmos-2251-debris", "lat": 71.46976970393338, "lon": -156.19918575155765, "alt_km": 678.7020798786461, "timestamp": "2025-12-19T14:48:36.643431+00:00", "meta": {"OBJECT_NAME": "COSMOS 2251 DEB", "OBJECT_ID": "1993-036ABY", "EPOCH": "2025-12-19T03:03:42.702912", "MEAN_MOTION": 14.76684297, "ECCENTRICITY": 0.00660293, "INCLINATION": 74.0285, "RA_OF_ASC_NODE": 146.0601, "ARG_OF_PERICENTER": 256.446, "MEAN_ANOMALY": 102.9353, "EPHEMERIS_TYPE": 0, "CLASSIFICATION_TYPE": "U", "NORAD_CAT_ID": 34854, "ELEMENT_SET_NO": 999, "REV_AT_EPOCH": 71976, "BSTAR": 0.00056593375, "MEAN_MOTION_DOT": 4.07e-05, "MEAN_MOTION_DDOT": 0}, "tle": {"line1": "1 34854U 93036ABY 25353.12757758  .00004070  00000+0  56593-3 0  9996", "line2": "2 34854  74.0285 146.0601 0066029 256.4460 102.9353 14.76684297719767"}}, "geometry": {"type": "Point", "coordinates": [-156.19918575155765, 71.46976970393338]}}, {"type": "Feature", "properties": {"norad_id": 34856, "name": "COSMOS 2251 DEB", "group": "cosmos-2251-debris", "lat": 13.263492529841184, "lon": -113.1748145451865, "alt_km": 531.381686647982, "timestamp": "2025-12-19T14:48:36.643441+00:00", "meta": {"OBJECT_NAME": "COSMOS 2251 DEB", "OBJECT_ID": "1993-036ACA", "EPOCH": "2025-12-19T06:24:00.093600", "MEAN_MOTION": 15.06389388, "ECCENTRICITY": 0.00320641, "INCLINATION": 73.9981, "RA_OF_ASC_NODE": 71.4246, "ARG_OF_PERICENTER": 208.487, "MEAN_ANOMALY": 218.2947, "EPHEMERIS_TYPE": 0, "CLASSIFICATION_TYPE": "U", "NORAD_CAT_ID": 34856, "ELEMENT_SET_NO": 999, "REV_AT_EPOCH": 89210, "BSTAR": 0.0011169661, "MEAN_MOTION_DOT": 0.00016644, "MEAN_MOTION_DDOT": 0}, "tle": {"line1": "1 34856U 93036ACA 25353.26666775  .00016644  00000+0  11170-2 0  9992", "line2": "2 34856  73.9981  71.4246 0032064 208.4870 218.2947 15.06389388892107"}}, "geometry": {"type": "Point", "coordinates": [-113.1748145451865, 13.263492529841184]}}, {"type": "Feature", "properties": {"norad_id": 34857, "name": "COSMOS 2251 DEB", "group": "cosmos-2251-debris", "lat": 73.27973692420218, "lon": 166.29438095022695, "alt_km": 719.9641588476043, "timestamp": "2025-12-19T14:48:36.643452+00:00", "meta": {"OBJECT_NAME": "COSMOS 2251 DEB", "OBJECT_ID": "1993-036ACB", "EPOCH": "2025-12-19T06:18:57.032640", "MEAN_MOTION": 14.58954482, "ECCENTRICITY": 0.00656058, "INCLINATION": 74.0163, "RA_OF_ASC_NODE": 94.3864, "ARG_OF_PERICENTER": 217.6758, "MEAN_ANOMALY": 169.7883, "EPHEMERIS_TYPE": 0, "CLASSIFICATION_TYPE": "U", "NORAD_CAT_ID": 34857, "ELEMENT_SET_NO": 999, "REV_AT_EPOCH": 87996, "BSTAR": 0.00074617352, "MEAN_MOTION_DOT": 3.576e-05, "MEAN_MOTION_DDOT": 0}, "tle": {"line1": "1 34857U 93036ACB 25353.26316010  .00003576  00000+0  74617-3 0  9993", "line2": "2 34857  74.0163  94.3864 0065605 217.6758 169.7883 14.58954482879963"}}, "geometry": {"type": "Point", "coordinates": [166.29438095022695, 73.27973692420218]}}, {"type": "Feature", "properties": {"norad_id": 34859, "name": "COSMOS 2251 DEB", "group": "cosmos-2251-debris", "lat": -7.196551805101525, "lon": -36.73352716267217, "alt_km": 520.8497697556259, "timestamp": "2025-12-19T14:48:36.643462+00:00", "meta": {"OBJECT_NAME": "COSMOS 2251 DEB", "OBJECT_ID": "1993-036ACD", "EPOCH": "2025-12-19T00:54:25.454304", "MEAN_MOTION": 15.1571723, "ECCENTRICITY": 0.00020698, "INCLINATION": 74.0272, "RA_OF_ASC_NODE": 326.5456, "ARG_OF_PERICENTER": 16.6156, "MEAN_ANOMALY": 56.3399, "EPHEMERIS_TYPE": 0, "CLASSIFICATION_TYPE": "U", "NORAD_CAT_ID": 34859, "ELEMENT_SET_NO": 999, "REV_AT_EPOCH": 88454, "BSTAR": 0.0032258005, "MEAN_MOTION_DOT": 0.0006198, "MEAN_MOTION_DDOT": 0}, "tle": {"line1": "1 34859U 93036ACD 25353.03779461  .00061980  00000+0  32258-2 0  9990", "line2": "2 34859  74.0272 326.5456 0002069  16.6156  56.3399 15.15717230884542"}}, "geometry": {"type": "Point", "coordinates": [-36.73352716267217, -7.196551805101525]}}, {"type": "Feature", "properties": {"norad_id": 34861, "name": "COSMOS 2251 DEB", "group": "cosmos-2251-debris", "lat": -47.97806687681856, "lon": 18.25521049019079, "alt_km": 563.0661296879844, "timestamp": "2025-12-19T14:48:36.643472+00:00", "meta": {"OBJECT_NAME": "COSMOS 2251 DEB", "OBJECT_ID": "1993-036ACF", "EPOCH": "2025-12-18T14:08:43.600128", "MEAN_MOTION": 15.02920509, "ECCENTRICITY": 0.00076164, "INCLINATION": 74.0194, "RA_OF_ASC_NODE": 38.8984, "ARG_OF_PERICENTER": 29.0921, "MEAN_ANOMALY": 122.3778, "EPHEMERIS_TYPE": 0, "CLASSIFICATION_TYPE": "U", "NORAD_CAT_ID": 34861, "ELEMENT_SET_NO": 999, "REV_AT_EPOCH": 88180, "BSTAR": 0.0018473696, "MEAN_MOTION_DOT": 0.00024875, "MEAN_MOTION_DDOT": 0}, "tle": {"line1": "1 34861U 93036ACF 25352.58939352  .00024875  00000+0  18474-2 0  9995", "line2": "2 34861  74.0194  38.8984 0007616  29.0921 122.3778 15.02920509881800"}}, "geometry": {"type": "Point", "coordinates": [18.25521049019079, -47.97806687681856]}}, {"type": "Feature", "properties": {"norad_id": 34874, "name": "COSMOS 2251 DEB", "group": "cosmos-2251-debris", "lat": 53.853470113280984, "lon": 84.2006602395335, "alt_km": 732.9034837989411, "timestamp": "2025-12-19T14:48:36.643482+00:00", "meta": {"OBJECT_NAME": "COSMOS 2251 DEB", "OBJECT_ID": "1993-036ACM", "EPOCH": "2025-12-19T04:39:40.544064", "MEAN_MOTION": 14.36338603, "ECCENTRICITY": 0.00506442, "INCLINATION": 74.0396, "RA_OF_ASC_NODE": 61.9113, "ARG_OF_PERICENTER": 85.1472, "MEAN_ANOMALY": 306.5928, "EPHEMERIS_TYPE": 0, "CLASSIFICATION_TYPE": "U", "NORAD_CAT_ID": 34874, "ELEMENT_SET_NO": 999, "REV_AT_EPOCH": 87137, "BSTAR": 0.00057776361, "MEAN_MOTION_DOT": 1.69e-05, "MEAN_MOTION_DDOT": 0}, "tle": {"line1": "1 34874U 93036ACM 25353.19421926  .00001690  00000+0  57776-3 0  9999", "line2": "2 34874  74.0396  61.9113 0050644  85.1472 306.5928 14.36338603871370"}}, "geometry": {"type": "Point", "coordinates": [84.2006602395335, 53.853470113280984]}}]}